*******************************************************************************
 Revised: Nov 05, 2015             Nix / (Pluto)                            902 

 Fit to all available observations including New Horizons encounter tracking.
*******************************************************************************
 

 

*******************************************************************************
Ephemeris / WWW_USER Fri Dec 27 22:44:01 2019 Pasadena, USA      / Horizons    
*******************************************************************************
Target body name: Nix (902)                       {source: plu055l_merged}
Center body name: Pluto (999)                     {source: plu055l_merged}
Center-site name: BODY CENTER
*******************************************************************************
Start time      : A.D. 2020-Jan-01 00:00:00.0000 TDB
Stop  time      : A.D. 2020-Jan-01 00:01:00.0000 TDB
Step-size       : 60 minutes
*******************************************************************************
Center geodetic : 0.00000000,0.00000000,0.0000000 {E-lon(deg),Lat(deg),Alt(km)}
Center cylindric: 0.00000000,0.00000000,0.0000000 {E-lon(deg),Dxy(km),Dz(km)}
Center radii    : 1195.0 x 1195.0 x 1195.0 km     {Equator, meridian, pole}    
Keplerian GM    : 8.6934122859046045E+02 km^3/s^2
Output units    : KM-S, deg                                                    
Output type     : GEOMETRIC osculating elements
Output format   : 10
Reference frame : ICRF/J2000.0                                                 
Coordinate systm: Ecliptic and Mean Equinox of Reference Epoch                 
*******************************************************************************
            JDTDB,            Calendar Date (TDB),                     EC,                     QR,                     IN,                     OM,                      W,                     Tp,                      N,                     MA,                     TA,                      A,                     AD,                     PR,
**************************************************************************************************************************************************************************************************************************************************************************************************************************************************
$$SOE
2458849.500000000, A.D. 2020-Jan-01 00:00:00.0000,  1.234296597828262E-01,  4.235540210928289E+04,  1.129054214721053E+02,  2.274106194534253E+02,  1.629001597020430E+02,  4.885849151400468E+05,  1.590503812689346E-04,  2.822903829647255E+02,  2.681474620719954E+02,  4.831945614175033E+04,  5.428351017421776E+04,  2.263433744250410E+06,
$$EOE
**************************************************************************************************************************************************************************************************************************************************************************************************************************************************
Coordinate system description:

  Ecliptic and Mean Equinox of Reference Epoch

    Reference epoch: J2000.0
    XY-plane: plane of the Earth's orbit at the reference epoch
              Note: obliquity of 84381.448 arcseconds wrt ICRF equator (IAU76)
    X-axis  : out along ascending node of instantaneous plane of the Earth's
              orbit and the Earth's mean equator at the reference epoch
    Z-axis  : perpendicular to the xy-plane in the directional (+ or -) sense
              of Earth's north pole at the reference epoch.

  Symbol meaning:

    JDTDB    Julian Day Number, Barycentric Dynamical Time
      EC     Eccentricity, e                                                   
      QR     Periapsis distance, q (km)                                        
      IN     Inclination w.r.t XY-plane, i (degrees)                           
      OM     Longitude of Ascending Node, OMEGA, (degrees)                     
      W      Argument of Perifocus, w (degrees)                                
      Tp     Time of periapsis relative to epoch (P-E) (sec)                   
      N      Mean motion, n (degrees/sec)                                      
      MA     Mean anomaly, M (degrees)                                         
      TA     True anomaly, nu (degrees)                                        
      A      Semi-major axis, a (km)                                           
      AD     Apoapsis distance (km)                                            
      PR     Sidereal orbit period (sec)                                       

Geometric states/elements have no aberrations applied.

 Computations by ...
     Solar System Dynamics Group, Horizons On-Line Ephemeris System
     4800 Oak Grove Drive, Jet Propulsion Laboratory
     Pasadena, CA  91109   USA
     Information: http://ssd.jpl.nasa.gov/
     Connect    : telnet://ssd.jpl.nasa.gov:6775  (via browser)
                  http://ssd.jpl.nasa.gov/?horizons
                  telnet ssd.jpl.nasa.gov 6775    (via command-line)
     Author     : Jon.D.Giorgini@jpl.nasa.gov
*******************************************************************************
